IRIDIUM 113             
1 42803U 17039A   26159.17045375  .00000142  00000+0  43635-4 0  9993
2 42803  86.3964 325.9490 0002311  90.0902 270.0558 14.34217849469890
NORSAT 2                
1 42828U 17042D   26159.01964271  .00011300  00000+0  50044-3 0  9991
2 42828  97.4043 332.6077 0010871  85.5789 274.6689 15.21750920486349
TECHNOSAT               
1 42829U 17042E   26159.00712351  .00003273  00000+0  23457-3 0  9999
2 42829  97.4268 317.0161 0018875 123.1352 237.1690 15.04900003485320
FLYING LAPTOP           
1 42831U 17042G   26159.18656231  .00003173  00000+0  25162-3 0  9999
2 42831  97.4657 315.0688 0019124 151.1196 209.1091 15.01085919485109
WNISAT 1R               
1 42835U 17042L   26159.16334094  .00002483  00000+0  19514-3 0  9998
2 42835  97.4833 315.6090 0010059 178.7752 181.3500 15.01723469485153
LEMUR-2-GREENBERG       
1 42837U 17042N   26159.06861267  .00018086  00000+0  60391-3 0  9991
2 42837  97.3822 339.7378 0009405  45.2806 314.9199 15.31050242486995
LEMUR-2-FURIAUS         
1 42840U 17042R   26158.46729569  .00018073  00000+0  62480-3 0  9993
2 42840  97.3773 337.1173 0008535  98.8266 261.3941 15.29931512486722
CORVUS BC2              
1 42846U 17042X   26159.02733465  .00003387  00000+0  23448-3 0  9995
2 42846  97.4062 320.7350 0014202 138.2076 222.0239 15.06239540485686
CORVUS BC1              
1 42847U 17042Y   26159.02298042  .00003322  00000+0  22909-3 0  9993
2 42847  97.4086 321.5388 0013330 117.0197 243.2393 15.06406941485714
VRSS-2                  
1 42954U 17060A   26159.20230458  .00001287  00000+0  17136-3 0  9993
2 42954  97.6514 197.3340 0018248 125.8809 234.4101 14.81180780467124
MOHAMMED VI-A           
1 43005U 17070A   26159.20109984  .00000485  00000+0  75887-4 0  9998
2 43005  97.9554 231.6560 0001549  71.8776 288.2603 14.77057736462650
FENGYUN 3D              
1 43010U 17072A   26159.19705637  .00000183  00000+0  10812-3 0  9992
2 43010  99.0127 133.4574 0002632  76.0491 284.0977 14.19737916443719
NOAA 20 (JPSS-1)        
1 43013U 17073A   26159.12004583  .00000061  00000+0  49736-4 0  9994
2 43013  98.7770  98.6634 0000476  40.4301 319.6910 14.19510112443180
MAKERSAT 0              
1 43016U 17073D   26158.64340437  .00021201  00000+0  58054-3 0  9995
2 43016  97.4640  41.0894 0106135 307.5668  51.5969 15.31756990465009
RADFXSAT (FOX-1B)       
1 43017U 17073E   26158.88082012  .00009506  00000+0  41497-3 0  9991
2 43017  97.4721  26.2863 0150955   1.5297 358.6365 15.12564477463981
JILIN-1 04              
1 43022U 17074A   26159.13290015  .00013767  00000+0  32252-3 0  9994
2 43022  97.4846 268.5064 0003343 210.2729 149.8325 15.42216086472873
JILIN-1 05              
1 43023U 17074B   26159.18339184  .00007584  00000+0  23493-3 0  9998
2 43023  97.4852 265.2175 0003774 253.7859 106.2968 15.33734620472624
JILIN-1 06              
1 43024U 17074C   26159.15401975  .00005033  00000+0  15743-3 0  9990
2 43024  97.4779 262.2085 0005293 271.0440  89.0196 15.33595992472456
IRIDIUM 116             
1 43072U 17083C   26159.00554539  .00000237  00000+0  77682-4 0  9994
2 43072  86.3957 325.8411 0001852  93.5040 266.6367 14.34217636442853
IRIDIUM 130             
1 43073U 17083D   26159.18313767  .00000244  00000+0  79904-4 0  9997
2 43073  86.3967 326.0415 0001951  88.1759 271.9660 14.34218276442822
LKW-2                   
1 43080U 17084A   26159.17775385  .00007302  00000+0  28470-3 0  9996
2 43080  97.1196 199.3951 0000200 289.3077  70.8141 15.26223636470317
SUPERVIEW-1 03          
1 43099U 18002A   26159.19365362  .00018081  00000+0  45319-3 0  9996
2 43099  97.3128 244.0473 0046641 211.8886 147.9535 15.38959323466981
CARTOSAT-2F             
1 43111U 18004A   26159.18471803  .00004855  00000+0  23323-3 0  9995
2 43111  97.4784 218.9077 0000077 349.4337  10.6896 15.19306449465964
LKW-3                   
1 43146U 18006A   26159.18914875  .00009224  00000+0  27352-3 0  9997
2 43146  97.6608 319.4138 0002739   2.5522 357.5734 15.35068568467336
ASNARO-2                
1 43152U 18007A   26159.18138498  .00010457  00000+0  45517-3 0  9997
2 43152  97.3978 166.2491 0001636  86.9623 273.1801 15.22412998466044
JILIN-1 07              
1 43159U 18008E   26159.16003090  .00007699  00000+0  23178-3 0  9995
2 43159  97.1778 179.3301 0010239  91.6465 268.5951 15.34570971463611
JILIN-1 08              
1 43160U 18008F   26159.15445253  .00005924  00000+0  18453-3 0  9996
2 43160  97.1810 178.6505 0008042 104.4400 255.7736 15.33607635463569
S-NET D                 
1 43186U 18014G   26158.69721507  .00006035  00000+0  31213-3 0  9991
2 43186  97.5366  63.5470 0009706  58.8150 301.4033 15.16583818457325
S-NET B                 
1 43187U 18014H   26158.97240561  .00005447  00000+0  28230-3 0  9990
2 43187  97.5372  63.8067 0010253  53.5740 306.6437 15.16556524457367
